ORBCOMM-X [-]           
1 21576U 91050C   24068.91380668  .00000488  00000+0  16082-3 0  9996
2 21576  98.4001 137.7215 0004467 139.8563 220.2958 14.42391706715027
ORBCOMM FM01 [-]        
1 23545U 95017A   24068.48321383  .00006013  00000+0  82583-3 0  9991
2 23545  69.9682 144.9339 0008582 296.5554  63.4715 14.78807325543400
ORBCOMM FM02 [-]        
1 23546U 95017B   24068.49454347  .00006145  00000+0  85177-3 0  9998
2 23546  69.9703 164.2142 0010364 293.1351  66.8705 14.78392441543056
ORBCOMM FM08 [-]        
1 25112U 97084A   24068.71115786  .00002322  00000+0  74241-3 0  9994
2 25112  45.0144  75.8632 0006150  43.2666 316.8666 14.42120199374093
ORBCOMM FM10 [-]        
1 25113U 97084B   24068.71451469  .00002182  00000+0  70138-3 0  9991
2 25113  45.0156  77.6566 0005027   4.6234 355.4662 14.42044725549243
ORBCOMM FM11 [+]        
1 25114U 97084C   24068.72807749  .00002109  00000+0  68094-3 0  9996
2 25114  45.0140  77.6108 0005692   8.2000 351.8942 14.41930603374210
ORBCOMM FM12 [-]        
1 25115U 97084D   24068.40925789  .00002185  00000+0  70444-3 0  9993
2 25115  45.0147  78.8071 0004811   3.0212 357.0666 14.41898750373968
ORBCOMM FM09 [-]        
1 25116U 97084E   24068.07267267  .00002163  00000+0  69826-3 0  9995
2 25116  45.0150  81.0814 0006379 352.3572   7.7179 14.41864226374122
